{
  "type": "FeatureCollection",
  "features": [
    {
      "type": "Feature",
      "properties": {
        "norad_id": 30940,
        "name": "FENGYUN 1C DEB",
        "group": "fengyun-1c-debris",
        "lat": 69.81847779073307,
        "lon": -25.63109933012807,
        "alt_km": 864.6731104509172,
        "timestamp": "2025-12-24T22:42:22.310984+00:00",
        "meta_object_name": "FENGYUN 1C DEB",
        "meta_object_id": "1999-025BAE",
        "meta_epoch": "2025-12-22T05:52:00.054912",
        "meta_mean_motion": 14.08319135,
        "meta_eccentricity": 0.00407229,
        "meta_inclination": 98.6214,
        "meta_ra_of_asc_node": 356.1653,
        "meta_arg_of_pericenter": 336.7041,
        "meta_mean_anomaly": 84.9821,
        "meta_ephemeris_type": 0,
        "meta_classification_type": "U",
        "meta_norad_cat_id": 30940,
        "meta_element_set_no": 999,
        "meta_rev_at_epoch": 96266,
        "meta_bstar": 0.00045494688,
        "meta_mean_motion_dot": 7.42e-06,
        "meta_mean_motion_ddot": 0,
        "tle_line1": "1 30940U 99025BAE 25356.24444508  .00000742  00000+0  45495-3 0  9995",
        "tle_line2": "2 30940  98.6214 356.1653 0040722 336.7041  84.9821 14.08319135962662"
      },
      "geometry": {
        "type": "Point",
        "coordinates": [
          -25.63109933012807,
          69.81847779073307
        ]
      }
    },
    {
      "type": "Feature",
      "properties": {
        "norad_id": 30941,
        "name": "FENGYUN 1C DEB",
        "group": "fengyun-1c-debris",
        "lat": 81.28477344344476,
        "lon": 136.81236093621771,
        "alt_km": 803.7920965758394,
        "timestamp": "2025-12-24T22:42:22.310994+00:00",
        "meta_object_name": "FENGYUN 1C DEB",
        "meta_object_id": "1999-025BAF",
        "meta_epoch": "2025-12-22T13:14:37.382784",
        "meta_mean_motion": 14.31127061,
        "meta_eccentricity": 0.00335429,
        "meta_inclination": 98.5449,
        "meta_ra_of_asc_node": 213.2099,
        "meta_arg_of_pericenter": 288.9005,
        "meta_mean_anomaly": 70.8542,
        "meta_ephemeris_type": 0,
        "meta_classification_type": "U",
        "meta_norad_cat_id": 30941,
        "meta_element_set_no": 999,
        "meta_rev_at_epoch": 96766,
        "meta_bstar": 0.0019229309,
        "meta_mean_motion_dot": 5.062e-05,
        "meta_mean_motion_ddot": 0,
        "tle_line1": "1 30941U 99025BAF 25356.55182156  .00005062  00000+0  19229-2 0  9993",
        "tle_line2": "2 30941  98.5449 213.2099 0033542 288.9005  70.8542 14.31127061967669"
      },
      "geometry": {
        "type": "Point",
        "coordinates": [
          136.81236093621771,
          81.28477344344476
        ]
      }
    },
    {
      "type": "Feature",
      "properties": {
        "norad_id": 30942,
        "name": "FENGYUN 1C DEB",
        "group": "fengyun-1c-debris",
        "lat": 74.04077925598192,
        "lon": -150.85624238822137,
        "alt_km": 750.6200388807047,
        "timestamp": "2025-12-24T22:42:22.311006+00:00",
        "meta_object_name": "FENGYUN 1C DEB",
        "meta_object_id": "1999-025BAG",
        "meta_epoch": "2025-12-23T11:18:22.367808",
        "meta_mean_motion": 14.14848135,
        "meta_eccentricity": 0.01380214,
        "meta_inclination": 98.6801,
        "meta_ra_of_asc_node": 355.4204,
        "meta_arg_of_pericenter": 75.8391,
        "meta_mean_anomaly": 78.1252,
        "meta_ephemeris_type": 0,
        "meta_classification_type": "U",
        "meta_norad_cat_id": 30942,
        "meta_element_set_no": 999,
        "meta_rev_at_epoch": 96796,
        "meta_bstar": 0.000205253,
        "meta_mean_motion_dot": 3.93e-06,
        "meta_mean_motion_ddot": 0,
        "tle_line1": "1 30942U 99025BAG 25357.47109222  .00000393  00000+0  20525-3 0  9993",
        "tle_line2": "2 30942  98.6801 355.4204 0138021  75.8391  78.1252 14.14848135967964"
      },
      "geometry": {
        "type": "Point",
        "coordinates": [
          -150.85624238822137,
          74.04077925598192
        ]
      }
    },
    {
      "type": "Feature",
      "properties": {
        "norad_id": 30943,
        "name": "FENGYUN 1C DEB",
        "group": "fengyun-1c-debris",
        "lat": -13.633545819547695,
        "lon": 14.639388331012128,
        "alt_km": 856.8836325469383,
        "timestamp": "2025-12-24T22:42:22.311016+00:00",
        "meta_object_name": "FENGYUN 1C DEB",
        "meta_object_id": "1999-025BAH",
        "meta_epoch": "2025-12-20T07:38:18.723264",
        "meta_mean_motion": 14.04497018,
        "meta_eccentricity": 0.00507,
        "meta_inclination": 98.7975,
        "meta_ra_of_asc_node": 8.0033,
        "meta_arg_of_pericenter": 44.8439,
        "meta_mean_anomaly": 315.6809,
        "meta_ephemeris_type": 0,
        "meta_classification_type": "U",
        "meta_norad_cat_id": 30943,
        "meta_element_set_no": 999,
        "meta_rev_at_epoch": 95848,
        "meta_bstar": 0.00028856793,
        "meta_mean_motion_dot": 4.23e-06,
        "meta_mean_motion_ddot": 0,
        "tle_line1": "1 30943U 99025BAH 25354.31827226  .00000423  00000+0  28857-3 0  9995",
        "tle_line2": "2 30943  98.7975   8.0033 0050700  44.8439 315.6809 14.04497018958488"
      },
      "geometry": {
        "type": "Point",
        "coordinates": [
          14.639388331012128,
          -13.633545819547695
        ]
      }
    },
    {
      "type": "Feature",
      "properties": {
        "norad_id": 30944,
        "name": "FENGYUN 1C DEB",
        "group": "fengyun-1c-debris",
        "lat": 64.12033699815831,
        "lon": -105.96188596207966,
        "alt_km": 642.9284391249721,
        "timestamp": "2025-12-24T22:42:22.311026+00:00",
        "meta_object_name": "FENGYUN 1C DEB",
        "meta_object_id": "1999-025BAJ",
        "meta_epoch": "2025-12-21T22:15:45.159264",
        "meta_mean_motion": 14.52456444,
        "meta_eccentricity": 0.01492776,
        "meta_inclination": 98.849,
        "meta_ra_of_asc_node": 52.1254,
        "meta_arg_of_pericenter": 73.0628,
        "meta_mean_anomaly": 105.9233,
        "meta_ephemeris_type": 0,
        "meta_classification_type": "U",
        "meta_norad_cat_id": 30944,
        "meta_element_set_no": 999,
        "meta_rev_at_epoch": 99209,
        "meta_bstar": 0.00012945518,
        "meta_mean_motion_dot": 5.54e-06,
        "meta_mean_motion_ddot": 0,
        "tle_line1": "1 30944U 99025BAJ 25355.92760601  .00000554  00000+0  12946-3 0  9994",
        "tle_line2": "2 30944  98.8490  52.1254 0149277  73.0628 105.9233 14.52456444992096"
      },
      "geometry": {
        "type": "Point",
        "coordinates": [
          -105.96188596207966,
          64.12033699815831
        ]
      }
    },
    {
      "type": "Feature",
      "properties": {
        "norad_id": 30945,
        "name": "FENGYUN 1C DEB",
        "group": "fengyun-1c-debris",
        "lat": -50.16889948802072,
        "lon": 20.002443075279352,
        "alt_km": 786.5909985863891,
        "timestamp": "2025-12-24T22:42:22.311038+00:00",
        "meta_object_name": "FENGYUN 1C DEB",
        "meta_object_id": "1999-025BAK",
        "meta_epoch": "2025-12-23T19:13:25.802112",
        "meta_mean_motion": 14.29800555,
        "meta_eccentricity": 0.0030348,
        "meta_inclination": 99.3905,
        "meta_ra_of_asc_node": 7.3251,
        "meta_arg_of_pericenter": 6.9544,
        "meta_mean_anomaly": 171.4141,
        "meta_ephemeris_type": 0,
        "meta_classification_type": "U",
        "meta_norad_cat_id": 30945,
        "meta_element_set_no": 999,
        "meta_rev_at_epoch": 96595,
        "meta_bstar": 0.0016300295,
        "meta_mean_motion_dot": 4.161e-05,
        "meta_mean_motion_ddot": 0,
        "tle_line1": "1 30945U 99025BAK 25357.80099308  .00004161  00000+0  16300-2 0  9998",
        "tle_line2": "2 30945  99.3905   7.3251 0030348   6.9544 171.4141 14.29800555965954"
      },
      "geometry": {
        "type": "Point",
        "coordinates": [
          20.002443075279352,
          -50.16889948802072
        ]
      }
    },
    {
      "type": "Feature",
      "properties": {
        "norad_id": 30946,
        "name": "FENGYUN 1C DEB",
        "group": "fengyun-1c-debris",
        "lat": -8.291604657672211,
        "lon": 116.31096667004071,
        "alt_km": 796.9388515434157,
        "timestamp": "2025-12-24T22:42:22.311048+00:00",
        "meta_object_name": "FENGYUN 1C DEB",
        "meta_object_id": "1999-025BAL",
        "meta_epoch": "2025-12-23T07:12:30.483648",
        "meta_mean_motion": 14.48204965,
        "meta_eccentricity": 0.00896134,
        "meta_inclination": 99.0402,
        "meta_ra_of_asc_node": 113.2219,
        "meta_arg_of_pericenter": 161.5838,
        "meta_mean_anomaly": 255.1727,
        "meta_ephemeris_type": 0,
        "meta_classification_type": "U",
        "meta_norad_cat_id": 30946,
        "meta_element_set_no": 999,
        "meta_rev_at_epoch": 98504,
        "meta_bstar": 0.00071944578,
        "meta_mean_motion_dot": 2.77e-05,
        "meta_mean_motion_ddot": 0,
        "tle_line1": "1 30946U 99025BAL 25357.30035282  .00002770  00000+0  71945-3 0  9996",
        "tle_line2": "2 30946  99.0402 113.2219 0089613 161.5838 255.1727 14.48204965985044"
      },
      "geometry": {
        "type": "Point",
        "coordinates": [
          116.31096667004071,
          -8.291604657672211
        ]
      }
    }
  ]
}